COMMENT,ORIGINATOR,NORAD_CAT_ID,OBJECT_NAME,OBJECT_TYPE,CLASSIFICATION_TYPE,INTLDES,EPOCH,EPOCH_MICROSECONDS,MEAN_MOTION,ECCENTRICITY,INCLINATION,RA_OF_ASC_NODE,ARG_OF_PERICENTER,MEAN_ANOMALY,EPHEMERIS_TYPE,ELEMENT_SET_NO,REV_AT_EPOCH,BSTAR,MEAN_MOTION_DOT,MEAN_MOTION_DDOT,FILE,TLE_LINE0,TLE_LINE1,TLE_LINE2,OBJECT_ID,OBJECT_NUMBER,SEMIMAJOR_AXIS,PERIOD,APOGEE,PERIGEE,DECAYED
GENERATED VIA SPACETRACK.ORG API,18 SPCS,4084,SL-8 DEB,DEBRIS,U,69070C,2024-07-14 16:27:08,553024,14.46595525,0.0023069,74.0662,185.6784,258.1634,101.6937,0,999,89416,9.1023e-05,3.02e-06,0,4379045,0 SL-8 DEB,1 04084U 69070C   24196.68551566  .00000302  00000-0  91023-4 0  9996,2 04084  74.0662 185.6784 0023069 258.1634 101.6937 14.46595525894162,1969-070C,4084,7114.927,99.544,753.205,720.378,0
GENERATED VIA SPACETRACK.ORG API,18 SPCS,4084,SL-8 DEB,DEBRIS,U,69070C,2024-07-15 12:22:09,491232,14.46596166,0.0023061,74.0663,184.1316,256.4864,103.3726,0,999,89428,0.00010056,3.37e-06,0,4380266,0 SL-8 DEB,1 04084U 69070C   24197.51538763  .00000337  00000-0  10056-3 0  9997,2 04084  74.0663 184.1316 0023061 256.4864 103.3726 14.46596166894286,1969-070C,4084,7114.925,99.544,753.197,720.382,0
GENERATED VIA SPACETRACK.ORG API,18 SPCS,4084,SL-8 DEB,DEBRIS,U,69070C,2024-07-15 22:19:39,943488,14.46596211,0.0023054,74.0663,183.3583,255.6436,104.2164,0,999,89434,8.7954e-05,2.91e-06,0,4380878,0 SL-8 DEB,1 04084U 69070C   24197.93032342  .00000291  00000-0  87954-4 0  9996,2 04084  74.0663 183.3583 0023054 255.6436 104.2164 14.46596211894345,1969-070C,4084,7114.924,99.544,753.192,720.387,0
GENERATED VIA SPACETRACK.ORG API,18 SPCS,4084,SL-8 DEB,DEBRIS,U,69070C,2024-07-16 09:56:45,463776,14.46596622,0.0023047,74.0664,182.4559,254.6659,105.1953,0,999,89441,9.3006e-05,3.09e-06,0,4382085,0 SL-8 DEB,1 04084U 69070C   24198.41441509  .00000309  00000-0  93006-4 0  9994,2 04084  74.0664 182.4559 0023047 254.6659 105.1953 14.46596622894417,1969-070C,4084,7114.923,99.544,753.186,720.39,0
GENERATED VIA SPACETRACK.ORG API,18 SPCS,4084,SL-8 DEB,DEBRIS,U,69070C,2024-07-17 02:32:36,183840,14.46597185,0.0023036,74.0665,181.167,253.2587,106.6044,0,999,89449,9.5035e-05,3.17e-06,0,4382712,0 SL-8 DEB,1  4084U 69070C   24199.10597435  .00000317  00000-0  95035-4 0  9994,2  4084  74.0665 181.1670 0023036 253.2587 106.6044 14.46597185894491,1969-070C,4084,7114.921,99.544,753.176,720.396,0
GENERATED VIA SPACETRACK.ORG API,18 SPCS,4084,SL-8 DEB,DEBRIS,U,69070C,2024-07-17 10:50:31,544736,14.46598063,0.0023041,74.0666,180.5225,252.5767,107.2873,0,999,89456,0.0001298,4.43e-06,0,4383859,0 SL-8 DEB,1 04084U 69070C   24199.45175399  .00000443  00000-0  12980-3 0  9990,2 04084  74.0666 180.5225 0023041 252.5767 107.2873 14.46598063894560,1969-070C,4084,7114.918,99.544,753.177,720.39,0
GENERATED VIA SPACETRACK.ORG API,18 SPCS,4084,SL-8 DEB,DEBRIS,U,69070C,2024-07-17 22:27:37,23552,14.4659845,0.0023035,74.0667,179.6202,251.604,108.2614,0,999,89463,0.00012834,4.37e-06,0,4384343,0 SL-8 DEB,1 04084U 69070C   24199.93584518  .00000437  00000-0  12834-3 0  9991,2 04084  74.0667 179.6202 0023035 251.6040 108.2614 14.46598450894634,1969-070C,4084,7114.917,99.544,753.171,720.393,0
GENERATED VIA SPACETRACK.ORG API,18 SPCS,4084,SL-8 DEB,DEBRIS,U,69070C,2024-07-18 08:25:07,434336,14.46598794,0.0023031,74.0667,178.8469,250.7692,109.0974,0,999,89469,0.00013052,4.45e-06,0,4385553,0 SL-8 DEB,1 04084U 69070C   24200.35078049  .00000445  00000-0  13052-3 0  9999,2 04084  74.0667 178.8469 0023031 250.7692 109.0974 14.46598794894694,1969-070C,4084,7114.916,99.544,753.167,720.395,0
GENERATED VIA SPACETRACK.ORG API,18 SPCS,4084,SL-8 DEB,DEBRIS,U,69070C,2024-07-19 02:40:33,154176,14.46599627,0.0023018,74.0669,177.429,249.2181,110.6512,0,999,89478,0.00013883,4.75e-06,0,4386127,0 SL-8 DEB,1  4084U 69070C   24201.11149484  .00000475  00000-0  13883-3 0  9991,2  4084  74.0669 177.4290 0023018 249.2181 110.6512 14.46599627894786,1969-070C,4084,7114.913,99.544,753.155,720.401,0
GENERATED VIA SPACETRACK.ORG API,18 SPCS,4084,SL-8 DEB,DEBRIS,U,69070C,2024-07-19 10:58:28,483968,14.46599364,0.0023014,74.0669,176.7846,248.5431,111.3273,0,999,89485,0.00011135,3.76e-06,0,4387281,0 SL-8 DEB,1 04084U 69070C   24201.45727412  .00000376  00000-0  11135-3 0  9999,2 04084  74.0669 176.7846 0023014 248.5431 111.3273 14.46599364894859,1969-070C,4084,7114.914,99.544,753.153,720.405,0
GENERATED VIA SPACETRACK.ORG API,18 SPCS,4084,SL-8 DEB,DEBRIS,U,69070C,2024-07-19 22:35:33,917856,14.46599832,0.0023004,74.067,175.8823,247.5604,112.3119,0,999,89492,0.0001122,3.79e-06,0,4387890,0 SL-8 DEB,1 04084U 69070C   24201.94136479  .00000379  00000-0  11220-3 0  9998,2 04084  74.0670 175.8823 0023004 247.5604 112.3119 14.46599832894924,1969-070C,4084,7114.913,99.544,753.145,720.41,0
GENERATED VIA SPACETRACK.ORG API,18 SPCS,4084,SL-8 DEB,DEBRIS,U,69070C,2024-07-20 08:33:04,286304,14.46600183,0.0022997,74.067,175.1089,246.7203,113.1535,0,999,89498,0.00011257,3.8e-06,0,4389230,0 SL-8 DEB,1 04084U 69070C   24202.35629961  .00000380  00000-0  11257-3 0  9999,2 04084  74.0670 175.1089 0022997 246.7203 113.1535 14.46600183894986,1969-070C,4084,7114.911,99.544,753.139,720.414,0
GENERATED VIA SPACETRACK.ORG API,18 SPCS,4084,SL-8 DEB,DEBRIS,U,69070C,2024-07-20 21:49:44,753664,14.46600983,0.0022987,74.067,174.0778,245.5924,114.2836,0,999,89506,0.00012623,4.3e-06,0,4389813,0 SL-8 DEB,1 04084U 69070C   24202.90954576  .00000430  00000-0  12623-3 0  9997,2 04084  74.0670 174.0778 0022987 245.5924 114.2836 14.46600983895069,1969-070C,4084,7114.909,99.544,753.129,720.419,0
GENERATED VIA SPACETRACK.ORG API,18 SPCS,4084,SL-8 DEB,DEBRIS,U,69070C,2024-07-21 04:28:04,988640,14.46601099,0.0022984,74.0671,173.5623,245.0251,114.852,0,999,89508,0.00012088,4.1e-06,0,4390053,0 SL-8 DEB,1  4084U 69070C   24203.18616885  .00000410  00000-0  12088-3 0  9999,2  4084  74.0671 173.5623 0022984 245.0251 114.8520 14.46601099895085,1969-070C,4084,7114.908,99.544,753.126,720.421,0
GENERATED VIA SPACETRACK.ORG API,18 SPCS,4084,SL-8 DEB,DEBRIS,U,69070C,2024-07-21 09:26:50,160768,14.46601288,0.0022977,74.0671,173.1755,244.6088,115.2692,0,999,89513,0.00012052,4.09e-06,0,4391052,0 SL-8 DEB,1 04084U 69070C   24203.39363612  .00000409  00000-0  12052-3 0  9998,2 04084  74.0671 173.1755 0022977 244.6088 115.2692 14.46601288895133,1969-070C,4084,7114.908,99.544,753.121,720.425,0
GENERATED VIA SPACETRACK.ORG API,18 SPCS,4084,SL-8 DEB,DEBRIS,U,69070C,2024-07-21 22:43:30,609120,14.46601996,0.0022963,74.0671,172.1444,243.47,116.4104,0,999,89521,0.00013041,4.45e-06,0,4391543,0 SL-8 DEB,1 04084U 69070C   24203.94688205  .00000445  00000-0  13041-3 0  9996,2 04084  74.0671 172.1444 0022963 243.4700 116.4104 14.46601996895216,1969-070C,4084,7114.905,99.544,753.108,720.433,0
GENERATED VIA SPACETRACK.ORG API,18 SPCS,4084,SL-8 DEB,DEBRIS,U,69070C,2024-07-22 08:41:00,935232,14.46602217,0.002296,74.0671,171.371,242.6383,117.2439,0,999,89527,0.00012352,4.2e-06,0,4392757,0 SL-8 DEB,1 04084U 69070C   24204.36181638  .00000420  00000-0  12352-3 0  9998,2 04084  74.0671 171.3710 0022960 242.6383 117.2439 14.46602217895271,1969-070C,4084,7114.905,99.544,753.106,720.434,0
GENERATED VIA SPACETRACK.ORG API,18 SPCS,4084,SL-8 DEB,DEBRIS,U,69070C,2024-07-22 21:57:41,359392,14.46602849,0.0022943,74.0672,170.3398,241.497,118.3879,0,999,89535,0.00013022,4.44e-06,0,4393189,0 SL-8 DEB,1 04084U 69070C   24204.91506203  .00000444  00000-0  13022-3 0  9999,2 04084  74.0672 170.3398 0022943 241.4970 118.3879 14.46602849895353,1969-070C,4084,7114.903,99.544,753.091,720.444,0
GENERATED VIA SPACETRACK.ORG API,18 SPCS,4084,SL-8 DEB,DEBRIS,U,69070C,2024-07-23 07:55:11,670816,14.46603332,0.0022934,74.0672,169.5665,240.6557,119.2311,0,999,89539,0.00013796,4.72e-06,0,4394042,0 SL-8 DEB,1  4084U 69070C   24205.32999619  .00000472  00000-0  13796-3 0  9991,2  4084  74.0672 169.5665 0022934 240.6557 119.2311 14.46603332895395,1969-070C,4084,7114.901,99.544,753.083,720.449,0
GENERATED VIA SPACETRACK.ORG API,18 SPCS,4084,SL-8 DEB,DEBRIS,U,69070C,2024-07-23 14:33:31,872096,14.46603518,0.0022925,74.0672,169.0509,240.0967,119.7915,0,999,89545,0.00013488,4.61e-06,0,4394545,0 SL-8 DEB,1 04084U 69070C   24205.60661889  .00000461  00000-0  13488-3 0  9993,2 04084  74.0672 169.0509 0022925 240.0967 119.7915 14.46603518895454,1969-070C,4084,7114.9,99.544,753.076,720.455,0
GENERATED VIA SPACETRACK.ORG API,18 SPCS,4084,SL-8 DEB,DEBRIS,U,69070C,2024-07-23 22:51:27,118080,14.46603838,0.0022917,74.0672,168.4064,239.3798,120.5101,0,999,89550,0.00013482,4.61e-06,0,4395100,0 SL-8 DEB,1 04084U 69070C   24205.95239720  .00000461  00000-0  13482-3 0  9990,2 04084  74.0672 168.4064 0022917 239.3798 120.5101 14.46603838895505,1969-070C,4084,7114.899,99.543,753.07,720.459,0
GENERATED VIA SPACETRACK.ORG API,18 SPCS,4084,SL-8 DEB,DEBRIS,U,69070C,2024-07-24 08:48:57,418272,14.46603949,0.0022901,74.0672,167.633,238.5346,121.3574,0,999,89556,0.00012471,4.24e-06,0,4396351,0 SL-8 DEB,1 04084U 69070C   24206.36733123  .00000424  00000-0  12471-3 0  9998,2 04084  74.0672 167.6330 0022901 238.5346 121.3574 14.46603949895567,1969-070C,4084,7114.899,99.543,753.058,720.47,0
GENERATED VIA SPACETRACK.ORG API,18 SPCS,4084,SL-8 DEB,DEBRIS,U,69070C,2024-07-25 06:23:33,43488,14.46604437,0.0022882,74.0674,165.9574,236.7102,123.1865,0,999,89569,0.00011515,3.9e-06,0,4398177,0 SL-8 DEB,1 04084U 69070C   24207.26635467  .00000390  00000-0  11515-3 0  9990,2 04084  74.0674 165.9574 0022882 236.7102 123.1865 14.46604437895698,1969-070C,4084,7114.897,99.543,753.043,720.482,0
GENERATED VIA SPACETRACK.ORG API,18 SPCS,4084,SL-8 DEB,DEBRIS,U,69070C,2024-07-25 08:03:08,89056,14.46604493,0.0022881,74.0674,165.8285,236.5728,123.3243,0,999,89568,0.00011509,3.89e-06,0,4397849,0 SL-8 DEB,1  4084U 69070C   24207.33551029  .00000389  00000-0  11509-3 0  9990,2  4084  74.0674 165.8285 0022881 236.5728 123.3243 14.46604493895680,1969-070C,4084,7114.897,99.543,753.042,720.483,0
